[{"OBJECT_NAME":"STARLINK-5665","OBJECT_ID":"2023-013AG","EPOCH":"2026-03-09T22:00:01.999584","MEAN_MOTION":15.07502905,"ECCENTRICITY":0.00013904,"INCLINATION":42.9992,"RA_OF_ASC_NODE":285.8236,"ARG_OF_PERICENTER":295.8036,"MEAN_ANOMALY":172.8657,"EPHEMERIS_TYPE":0,"CLASSIFICATION_TYPE":"U","NORAD_CAT_ID":55361,"ELEMENT_SET_NO":999,"REV_AT_EPOCH":578,"BSTAR":0.0026721274,"MEAN_MOTION_DOT":0.00041277,"MEAN_MOTION_DDOT":0},{"OBJECT_NAME":"CZ-6A DEB","OBJECT_ID":"2022-151AEC","EPOCH":"2026-03-09T16:07:43.414464","MEAN_MOTION":15.01082395,"ECCENTRICITY":0.0040922,"INCLINATION":98.632,"RA_OF_ASC_NODE":144.2747,"ARG_OF_PERICENTER":190.1613,"MEAN_ANOMALY":169.8786,"EPHEMERIS_TYPE":0,"CLASSIFICATION_TYPE":"U","NORAD_CAT_ID":56604,"ELEMENT_SET_NO":999,"REV_AT_EPOCH":16341,"BSTAR":0.005850488,"MEAN_MOTION_DOT":0.00076879,"MEAN_MOTION_DDOT":0}]
